[
    {
        "Altitude(m)": 560079.833084631,
        "Argument of Periapsis(deg)": 0.019868973332140504,
        "Eccentricity": 0.0,
        "Inclination(deg)": 53.0,
        "Latitude(deg)": -23.50335000824544,
        "Longitude(deg)": 83.59859133405799,
        "Mean Anomaly(deg)": -29.72512139726716,
        "RAAN(deg)": 204.97043010558406,
        "Satellite Name": "Starlink Shell 1 920",
        "Satellite Number": 920,
        "Semi-Major Axis(m)": 6931778.249405717,
        "Time(s)": 570
    },
    {
        "Altitude(m)": 559913.7121064092,
        "Argument of Periapsis(deg)": 0.02021755181165174,
        "Eccentricity": 0.0,
        "Inclination(deg)": 53.0,
        "Latitude(deg)": -23.027644233659192,
        "Longitude(deg)": 84.00251355312407,
        "Mean Anomaly(deg)": -29.09829019371049,
        "RAAN(deg)": 204.96991133550657,
        "Satellite Name": "Starlink Shell 1 920",
        "Satellite Number": 920,
        "Semi-Major Axis(m)": 6931778.249405717,
        "Time(s)": 580
    },
    {
        "Altitude(m)": 559748.6976189001,
        "Argument of Periapsis(deg)": 0.020566130291162974,
        "Eccentricity": 0.0,
        "Inclination(deg)": 53.0,
        "Latitude(deg)": -22.550651762949826,
        "Longitude(deg)": 84.4033344197506,
        "Mean Anomaly(deg)": -28.47145899015385,
        "RAAN(deg)": 204.9693925654291,
        "Satellite Name": "Starlink Shell 1 920",
        "Satellite Number": 920,
        "Semi-Major Axis(m)": 6931778.249405717,
        "Time(s)": 590
    },
    {
        "Altitude(m)": 559584.8483799262,
        "Argument of Periapsis(deg)": 0.020914708770674213,
        "Eccentricity": 0.0,
        "Inclination(deg)": 53.0,
        "Latitude(deg)": -22.072409793965807,
        "Longitude(deg)": 84.80113849391894,
        "Mean Anomaly(deg)": -27.8446277865971,
        "RAAN(deg)": 204.9688737953516,
        "Satellite Name": "Starlink Shell 1 920",
        "Satellite Number": 920,
        "Semi-Major Axis(m)": 6931778.249405717,
        "Time(s)": 600
    },
    {
        "Altitude(m)": 559422.2224790417,
        "Argument of Periapsis(deg)": 0.021263287250185448,
        "Eccentricity": 0.0,
        "Inclination(deg)": 53.0,
        "Latitude(deg)": -21.592954817008355,
        "Longitude(deg)": 85.19600917827407,
        "Mean Anomaly(deg)": -27.217796583040403,
        "RAAN(deg)": 204.96835502527415,
        "Satellite Name": "Starlink Shell 1 920",
        "Satellite Number": 920,
        "Semi-Major Axis(m)": 6931778.249405717,
        "Time(s)": 610
    },
    {
        "Altitude(m)": 559260.8773115234,
        "Argument of Periapsis(deg)": 0.021611865729696686,
        "Eccentricity": 0.0,
        "Inclination(deg)": 53.0,
        "Latitude(deg)": -21.112322638197558,
        "Longitude(deg)": 85.58802924354174,
        "Mean Anomaly(deg)": -26.59096537948366,
        "RAAN(deg)": 204.96783625519666,
        "Satellite Name": "Starlink Shell 1 920",
        "Satellite Number": 920,
        "Semi-Major Axis(m)": 6931778.249405717,
        "Time(s)": 620
    },
    {
        "Altitude(m)": 559100.8695527732,
        "Argument of Periapsis(deg)": 0.02196044420920792,
        "Eccentricity": 0.0,
        "Inclination(deg)": 53.0,
        "Latitude(deg)": -20.63054840233752,
        "Longitude(deg)": 85.9772796738081,
        "Mean Anomaly(deg)": -25.96413417592691,
        "RAAN(deg)": 204.9673174851192,
        "Satellite Name": "Starlink Shell 1 920",
        "Satellite Number": 920,
        "Semi-Major Axis(m)": 6931778.249405717,
        "Time(s)": 630
    },
    {
        "Altitude(m)": 558942.255132974,
        "Argument of Periapsis(deg)": 0.02230902268871916,
        "Eccentricity": 0.0,
        "Inclination(deg)": 53.0,
        "Latitude(deg)": -20.147666615285033,
        "Longitude(deg)": 86.36384103399324,
        "Mean Anomaly(deg)": -25.337302972370242,
        "RAAN(deg)": 204.9667987150417,
        "Satellite Name": "Starlink Shell 1 920",
        "Satellite Number": 920,
        "Semi-Major Axis(m)": 6931778.249405717,
        "Time(s)": 640
    },
    {
        "Altitude(m)": 558785.0892121999,
        "Argument of Periapsis(deg)": 0.022657601168230398,
        "Eccentricity": 0.0,
        "Inclination(deg)": 53.0,
        "Latitude(deg)": -19.66371116583115,
        "Longitude(deg)": 86.74779231652506,
        "Mean Anomaly(deg)": -24.710471768813495,
        "RAAN(deg)": 204.96627994496427,
        "Satellite Name": "Starlink Shell 1 920",
        "Satellite Number": 920,
        "Semi-Major Axis(m)": 6931778.249405717,
        "Time(s)": 650
    },
    {
        "Altitude(m)": 558629.4261558043,
        "Argument of Periapsis(deg)": 0.023006179647741636,
        "Eccentricity": 0.0,
        "Inclination(deg)": 53.0,
        "Latitude(deg)": -19.17871534710365,
        "Longitude(deg)": 87.12921146955834,
        "Mean Anomaly(deg)": -24.08364056525682,
        "RAAN(deg)": 204.9657611748868,
        "Satellite Name": "Starlink Shell 1 920",
        "Satellite Number": 920,
        "Semi-Major Axis(m)": 6931778.249405717,
        "Time(s)": 660
    },
    {
        "Altitude(m)": 558475.3195102416,
        "Argument of Periapsis(deg)": 0.023354758127252868,
        "Eccentricity": 0.0,
        "Inclination(deg)": 53.0,
        "Latitude(deg)": -18.69271187749812,
        "Longitude(deg)": 87.50817592569813,
        "Mean Anomaly(deg)": -23.456809361700053,
        "RAAN(deg)": 204.96524240480932,
        "Satellite Name": "Starlink Shell 1 920",
        "Satellite Number": 920,
        "Semi-Major Axis(m)": 6931778.249405717,
        "Time(s)": 670
    },
    {
        "Altitude(m)": 558322.8219792754,
        "Argument of Periapsis(deg)": 0.023703336606764106,
        "Eccentricity": 0.0,
        "Inclination(deg)": 53.0,
        "Latitude(deg)": -18.205732921150123,
        "Longitude(deg)": 87.88476161828824,
        "Mean Anomaly(deg)": -22.829978158143305,
        "RAAN(deg)": 204.96472363473185,
        "Satellite Name": "Starlink Shell 1 920",
        "Satellite Number": 920,
        "Semi-Major Axis(m)": 6931778.249405717,
        "Time(s)": 680
    },
    {
        "Altitude(m)": 558171.9854005676,
        "Argument of Periapsis(deg)": 0.024051915086275345,
        "Eccentricity": 0.0,
        "Inclination(deg)": 53.0,
        "Latitude(deg)": -17.717810107955305,
        "Longitude(deg)": 88.2590435109502,
        "Mean Anomaly(deg)": -22.20314695458666,
        "RAAN(deg)": 204.9642048646544,
        "Satellite Name": "Starlink Shell 1 920",
        "Satellite Number": 920,
        "Semi-Major Axis(m)": 6931778.249405717,
        "Time(s)": 690
    },
    {
        "Altitude(m)": 558022.8607227225,
        "Argument of Periapsis(deg)": 0.024400493565786583,
        "Eccentricity": 0.0,
        "Inclination(deg)": 53.0,
        "Latitude(deg)": -17.22897455314982,
        "Longitude(deg)": 88.63109612744466,
        "Mean Anomaly(deg)": -21.576315751029888,
        "RAAN(deg)": 204.9636860945769,
        "Satellite Name": "Starlink Shell 1 920",
        "Satellite Number": 920,
        "Semi-Major Axis(m)": 6931778.249405717,
        "Time(s)": 700
    },
    {
        "Altitude(m)": 557875.4979827299,
        "Argument of Periapsis(deg)": 0.024749072045297815,
        "Eccentricity": 0.0,
        "Inclination(deg)": 53.0,
        "Latitude(deg)": -16.739256876462928,
        "Longitude(deg)": 89.00099256893198,
        "Mean Anomaly(deg)": -20.94948454747322,
        "RAAN(deg)": 204.96316732449944,
        "Satellite Name": "Starlink Shell 1 920",
        "Satellite Number": 920,
        "Semi-Major Axis(m)": 6931778.249405717,
        "Time(s)": 710
    },
    {
        "Altitude(m)": 557729.9462838687,
        "Argument of Periapsis(deg)": 0.025097650524809053,
        "Eccentricity": 0.0,
        "Inclination(deg)": 53.0,
        "Latitude(deg)": -16.248687220849867,
        "Longitude(deg)": 89.36880504433314,
        "Mean Anomaly(deg)": -20.32265334391647,
        "RAAN(deg)": 204.96264855442195,
        "Satellite Name": "Starlink Shell 1 920",
        "Satellite Number": 920,
        "Semi-Major Axis(m)": 6931778.249405717,
        "Time(s)": 720
    },
    {
        "Altitude(m)": 557586.2537740583,
        "Argument of Periapsis(deg)": 0.02544622900432029,
        "Eccentricity": 0.0,
        "Inclination(deg)": 53.0,
        "Latitude(deg)": -15.757295270820123,
        "Longitude(deg)": 89.73460540087486,
        "Mean Anomaly(deg)": -19.6958221403598,
        "RAAN(deg)": 204.96212978434448,
        "Satellite Name": "Starlink Shell 1 920",
        "Satellite Number": 920,
        "Semi-Major Axis(m)": 6931778.249405717,
        "Time(s)": 730
    },
    {
        "Altitude(m)": 557444.4676246613,
        "Argument of Periapsis(deg)": 0.02579480748383153,
        "Eccentricity": 0.0,
        "Inclination(deg)": 53.0,
        "Latitude(deg)": -15.265110270370235,
        "Longitude(deg)": 90.09846414191125,
        "Mean Anomaly(deg)": -19.068990936803157,
        "RAAN(deg)": 204.961611014267,
        "Satellite Name": "Starlink Shell 1 920",
        "Satellite Number": 920,
        "Semi-Major Axis(m)": 6931778.249405717,
        "Time(s)": 740
    },
    {
        "Altitude(m)": 557304.6340098022,
        "Argument of Periapsis(deg)": 0.026143385963342765,
        "Eccentricity": 0.0,
        "Inclination(deg)": 53.0,
        "Latitude(deg)": -14.772161040534101,
        "Longitude(deg)": 90.46045095773182,
        "Mean Anomaly(deg)": -18.44215973324631,
        "RAAN(deg)": 204.96109224418953,
        "Satellite Name": "Starlink Shell 1 920",
        "Satellite Number": 920,
        "Semi-Major Axis(m)": 6931778.249405717,
        "Time(s)": 750
    }
]